CCSDS_OMM_VERS = 2.0
CREATION_DATE  = 
ORIGINATOR     = 

OBJECT_NAME    = COSMOS 1892
OBJECT_ID      = 1987-088A
CENTER_NAME    = EARTH
REF_FRAME      = TEME
TIME_SYSTEM    = UTC
MEAN_ELEMENT_THEORY = SGP/SGP4

EPOCH          = 2025-11-04T19:18:24.688224
MEAN_MOTION    = 15.93667594
ECCENTRICITY   = .00055104
INCLINATION    = 82.4682
RA_OF_ASC_NODE = 86.4669
ARG_OF_PERICENTER = 301.4634
MEAN_ANOMALY   = 58.6101

EPHEMERIS_TYPE = 0
CLASSIFICATION_TYPE = U
NORAD_CAT_ID   = 18421
ELEMENT_SET_NO = 999
REV_AT_EPOCH   = 8524
BSTAR          = .6719157E-3
MEAN_MOTION_DOT = .241718E-2
MEAN_MOTION_DDOT = .20755053E-4

CCSDS_OMM_VERS = 2.0
CREATION_DATE  = 
ORIGINATOR     = 

OBJECT_NAME    = SL-14 R/B
OBJECT_ID      = 1988-001B
CENTER_NAME    = EARTH
REF_FRAME      = TEME
TIME_SYSTEM    = UTC
MEAN_ELEMENT_THEORY = SGP/SGP4

EPOCH          = 2025-11-04T23:41:54.972384
MEAN_MOTION    = 14.85360858
ECCENTRICITY   = .00166002
INCLINATION    = 82.5106
RA_OF_ASC_NODE = 312.6639
ARG_OF_PERICENTER = 292.8768
MEAN_ANOMALY   = 67.0695

EPHEMERIS_TYPE = 0
CLASSIFICATION_TYPE = U
NORAD_CAT_ID   = 18749
ELEMENT_SET_NO = 999
REV_AT_EPOCH   = 2351
BSTAR          = .62806403E-4
MEAN_MOTION_DOT = .565E-5
MEAN_MOTION_DDOT = 0

CCSDS_OMM_VERS = 2.0
CREATION_DATE  = 
ORIGINATOR     = 

OBJECT_NAME    = COSMOS 1933
OBJECT_ID      = 1988-020A
CENTER_NAME    = EARTH
REF_FRAME      = TEME
TIME_SYSTEM    = UTC
MEAN_ELEMENT_THEORY = SGP/SGP4

EPOCH          = 2025-11-04T16:34:00.967008
MEAN_MOTION    = 15.16657436
ECCENTRICITY   = .00028487
INCLINATION    = 82.5164
RA_OF_ASC_NODE = 14.4586
ARG_OF_PERICENTER = 274.4166
MEAN_ANOMALY   = 85.6742

EPHEMERIS_TYPE = 0
CLASSIFICATION_TYPE = U
NORAD_CAT_ID   = 18958
ELEMENT_SET_NO = 999
REV_AT_EPOCH   = 3127
BSTAR          = .20576231E-3
MEAN_MOTION_DOT = .4054E-4
MEAN_MOTION_DDOT = 0

CCSDS_OMM_VERS = 2.0
CREATION_DATE  = 
ORIGINATOR     = 

OBJECT_NAME    = SL-3 R/B
OBJECT_ID      = 1988-032B
CENTER_NAME    = EARTH
REF_FRAME      = TEME
TIME_SYSTEM    = UTC
MEAN_ELEMENT_THEORY = SGP/SGP4

EPOCH          = 2025-11-04T21:41:54.661632
MEAN_MOTION    = 15.18143275
ECCENTRICITY   = .00255488
INCLINATION    = 97.5038
RA_OF_ASC_NODE = 287.9100
ARG_OF_PERICENTER = 311.9612
MEAN_ANOMALY   = 47.9444

EPHEMERIS_TYPE = 0
CLASSIFICATION_TYPE = U
NORAD_CAT_ID   = 19046
ELEMENT_SET_NO = 999
REV_AT_EPOCH   = 3316
BSTAR          = .31095132E-3
MEAN_MOTION_DOT = .6333E-4
MEAN_MOTION_DDOT = 0

CCSDS_OMM_VERS = 2.0
CREATION_DATE  = 
ORIGINATOR     = 

OBJECT_NAME    = SL-16 R/B
OBJECT_ID      = 1988-039B
CENTER_NAME    = EARTH
REF_FRAME      = TEME
TIME_SYSTEM    = UTC
MEAN_ELEMENT_THEORY = SGP/SGP4

EPOCH          = 2025-11-04T18:24:19.304640
MEAN_MOTION    = 14.19586306
ECCENTRICITY   = .00216039
INCLINATION    = 71.0149
RA_OF_ASC_NODE = 332.6912
ARG_OF_PERICENTER = 178.0463
MEAN_ANOMALY   = 182.0750

EPHEMERIS_TYPE = 0
CLASSIFICATION_TYPE = U
NORAD_CAT_ID   = 19120
ELEMENT_SET_NO = 999
REV_AT_EPOCH   = 94065
BSTAR          = .42348352E-4
MEAN_MOTION_DOT = .41E-6
MEAN_MOTION_DDOT = 0

CCSDS_OMM_VERS = 2.0
CREATION_DATE  = 
ORIGINATOR     = 

OBJECT_NAME    = COSMOS 1953
OBJECT_ID      = 1988-050A
CENTER_NAME    = EARTH
REF_FRAME      = TEME
TIME_SYSTEM    = UTC
MEAN_ELEMENT_THEORY = SGP/SGP4

EPOCH          = 2025-11-04T21:13:15.560832
MEAN_MOTION    = 15.26312142
ECCENTRICITY   = .00112311
INCLINATION    = 82.5060
RA_OF_ASC_NODE = 283.5518
ARG_OF_PERICENTER = 192.9283
MEAN_ANOMALY   = 167.1669

EPHEMERIS_TYPE = 0
CLASSIFICATION_TYPE = U
NORAD_CAT_ID   = 19210
ELEMENT_SET_NO = 999
REV_AT_EPOCH   = 1873
BSTAR          = .23062287E-3
MEAN_MOTION_DOT = .6027E-4
MEAN_MOTION_DDOT = 0

CCSDS_OMM_VERS = 2.0
CREATION_DATE  = 
ORIGINATOR     = 

OBJECT_NAME    = SL-8 R/B
OBJECT_ID      = 1988-053B
CENTER_NAME    = EARTH
REF_FRAME      = TEME
TIME_SYSTEM    = UTC
MEAN_ELEMENT_THEORY = SGP/SGP4

EPOCH          = 2025-11-04T21:03:24.978816
MEAN_MOTION    = 14.38824026
ECCENTRICITY   = .00203945
INCLINATION    = 74.0480
RA_OF_ASC_NODE = 342.5042
ARG_OF_PERICENTER = 197.8478
MEAN_ANOMALY   = 334.8776

EPHEMERIS_TYPE = 0
CLASSIFICATION_TYPE = U
NORAD_CAT_ID   = 19257
ELEMENT_SET_NO = 999
REV_AT_EPOCH   = 95864
BSTAR          = .10784764E-3
MEAN_MOTION_DOT = .306E-5
MEAN_MOTION_DDOT = 0

CCSDS_OMM_VERS = 2.0
CREATION_DATE  = 
ORIGINATOR     = 

OBJECT_NAME    = COSMOS 1975
OBJECT_ID      = 1988-093A
CENTER_NAME    = EARTH
REF_FRAME      = TEME
TIME_SYSTEM    = UTC
MEAN_ELEMENT_THEORY = SGP/SGP4

EPOCH          = 2025-11-04T19:34:01.924320
MEAN_MOTION    = 15.25562837
ECCENTRICITY   = .00094164
INCLINATION    = 82.5220
RA_OF_ASC_NODE = 242.7646
ARG_OF_PERICENTER = 248.6405
MEAN_ANOMALY   = 111.3829

EPHEMERIS_TYPE = 0
CLASSIFICATION_TYPE = U
NORAD_CAT_ID   = 19573
ELEMENT_SET_NO = 999
REV_AT_EPOCH   = 35
BSTAR          = .40529127E-3
MEAN_MOTION_DOT = .10329E-3
MEAN_MOTION_DDOT = 0

CCSDS_OMM_VERS = 2.0
CREATION_DATE  = 
ORIGINATOR     = 

OBJECT_NAME    = SL-14 R/B
OBJECT_ID      = 1988-093B
CENTER_NAME    = EARTH
REF_FRAME      = TEME
TIME_SYSTEM    = UTC
MEAN_ELEMENT_THEORY = SGP/SGP4

EPOCH          = 2025-11-04T20:14:01.007808
MEAN_MOTION    = 14.85490410
ECCENTRICITY   = .00223304
INCLINATION    = 82.5306
RA_OF_ASC_NODE = 159.2305
ARG_OF_PERICENTER = 91.0727
MEAN_ANOMALY   = 279.8152

EPHEMERIS_TYPE = 0
CLASSIFICATION_TYPE = U
NORAD_CAT_ID   = 19574
ELEMENT_SET_NO = 999
REV_AT_EPOCH   = 98250
BSTAR          = .5563352E-4
MEAN_MOTION_DOT = .507E-5
MEAN_MOTION_DDOT = 0

CCSDS_OMM_VERS = 2.0
CREATION_DATE  = 
ORIGINATOR     = 

OBJECT_NAME    = SL-16 R/B
OBJECT_ID      = 1988-102B
CENTER_NAME    = EARTH
REF_FRAME      = TEME
TIME_SYSTEM    = UTC
MEAN_ELEMENT_THEORY = SGP/SGP4

EPOCH          = 2025-11-04T17:43:56.707392
MEAN_MOTION    = 14.16130934
ECCENTRICITY   = .00151917
INCLINATION    = 71.0009
RA_OF_ASC_NODE = 54.3976
ARG_OF_PERICENTER = 209.7399
MEAN_ANOMALY   = 150.2863

EPHEMERIS_TYPE = 0
CLASSIFICATION_TYPE = U
NORAD_CAT_ID   = 19650
ELEMENT_SET_NO = 999
REV_AT_EPOCH   = 90920
BSTAR          = -.13750994E-4
MEAN_MOTION_DOT = -.75E-6
MEAN_MOTION_DDOT = 0

CCSDS_OMM_VERS = 2.0
CREATION_DATE  = 
ORIGINATOR     = 

OBJECT_NAME    = INTERCOSMOS 24
OBJECT_ID      = 1989-080A
CENTER_NAME    = EARTH
REF_FRAME      = TEME
TIME_SYSTEM    = UTC
MEAN_ELEMENT_THEORY = SGP/SGP4

EPOCH          = 2025-11-04T22:11:20.277600
MEAN_MOTION    = 12.59354403
ECCENTRICITY   = .11877885
INCLINATION    = 82.6086
RA_OF_ASC_NODE = 185.5416
ARG_OF_PERICENTER = 222.2561
MEAN_ANOMALY   = 128.0859

EPHEMERIS_TYPE = 0
CLASSIFICATION_TYPE = U
NORAD_CAT_ID   = 20261
ELEMENT_SET_NO = 999
REV_AT_EPOCH   = 65109
BSTAR          = .19741321E-3
MEAN_MOTION_DOT = .67E-5
MEAN_MOTION_DDOT = 0

CCSDS_OMM_VERS = 2.0
CREATION_DATE  = 
ORIGINATOR     = 

OBJECT_NAME    = SL-14 R/B
OBJECT_ID      = 1989-080C
CENTER_NAME    = EARTH
REF_FRAME      = TEME
TIME_SYSTEM    = UTC
MEAN_ELEMENT_THEORY = SGP/SGP4

EPOCH          = 2025-11-04T19:39:08.341920
MEAN_MOTION    = 12.50372709
ECCENTRICITY   = .12314721
INCLINATION    = 82.5917
RA_OF_ASC_NODE = 253.3556
ARG_OF_PERICENTER = 110.2077
MEAN_ANOMALY   = 263.5559

EPHEMERIS_TYPE = 0
CLASSIFICATION_TYPE = U
NORAD_CAT_ID   = 20262
ELEMENT_SET_NO = 999
REV_AT_EPOCH   = 64454
BSTAR          = .665556E-4
MEAN_MOTION_DOT = .254E-5
MEAN_MOTION_DDOT = 0

