COSMOS 1892             
1 18421U 87088A   25308.80445241  .00241718  20755-4  67192-3 0  9997
2 18421  82.4682  86.4669 0005510 301.4634  58.6101 15.93667594 85244
SL-14 R/B               
1 18749U 88001B   25308.98744181  .00000565  00000+0  62806-4 0  9997
2 18749  82.5106 312.6639 0016600 292.8768  67.0695 14.85360858 23510
COSMOS 1933             
1 18958U 88020A   25308.69028897  .00004054  00000+0  20576-3 0  9991
2 18958  82.5164  14.4586 0002848 274.4166  85.6742 15.16657436 31278
SL-3 R/B                
1 19046U 88032B   25308.90410488  .00006333  00000+0  31095-3 0  9998
2 19046  97.5038 287.9100 0025548 311.9612  47.9444 15.18143275 33160
SL-16 R/B               
1 19120U 88039B   25308.76689010  .00000041  00000+0  42348-4 0  9995
2 19120  71.0149 332.6912 0021603 178.0463 182.0750 14.19586306940654
COSMOS 1953             
1 19210U 88050A   25308.88420788  .00006027  00000+0  23062-3 0  9997
2 19210  82.5060 283.5518 0011231 192.9283 167.1669 15.26312142 18732
SL-8 R/B                
1 19257U 88053B   25308.87737244  .00000306  00000+0  10785-3 0  9990
2 19257  74.0480 342.5042 0020394 197.8478 334.8776 14.38824026958649
COSMOS 1975             
1 19573U 88093A   25308.81530005  .00010329  00000+0  40529-3 0  9990
2 19573  82.5220 242.7646 0009416 248.6405 111.3829 15.25562837   353
SL-14 R/B               
1 19574U 88093B   25308.84306722  .00000507  00000+0  55634-4 0  9992
2 19574  82.5306 159.2305 0022330  91.0727 279.8152 14.85490410982507
SL-16 R/B               
1 19650U 88102B   25308.73885078 -.00000075  00000+0 -13751-4 0  9998
2 19650  71.0009  54.3976 0015191 209.7399 150.2863 14.16130934909207
INTERCOSMOS 24          
1 20261U 89080A   25308.92454025  .00000670  00000+0  19741-3 0  9992
2 20261  82.6086 185.5416 1187788 222.2561 128.0859 12.59354403651093
SL-14 R/B               
1 20262U 89080C   25308.81884655  .00000254  00000+0  66556-4 0  9992
2 20262  82.5917 253.3556 1231472 110.2077 263.5559 12.50372709644547
